CTC1_L_00271001-01
1 87743U 23642GK  26070.40834491  .00000000  00000+0  00000-0 0  9993
2 87743  50.0000   0.0000 0000000   0.0000   0.0000 15.28598846    13
CTC1_L_00271001-02
1 87744U 22186EH  26070.40834491  .00000000  00000+0  00000-0 0  9996
2 87744  50.0000   0.0000 0000000   0.0000  90.0000 15.28598846    13
CTC1_L_00271001-03
1 87745U 22989KD  26070.40834491  .00000000  00000+0  00000-0 0  9998
2 87745  50.0000   0.0000 0000000   0.0000 180.0000 15.28598846    14
CTC1_L_00271001-04
1 87746U 24972KU  26070.40834491  .00000000  00000+0  00000-0 0  9993
2 87746  50.0000   0.0000 0000000   0.0000 270.0000 15.28598846    15
CTC1_L_00271002-01
1 87747U 23330BT  26070.40834491  .00000000  00000+0  00000-0 0  9991
2 87747  50.0000  12.0000 0000000   0.0000  12.0000 15.28598846    13
CTC1_L_00271002-02
1 87748U 26501MF  26070.40834491  .00000000  00000+0  00000-0 0  9995
2 87748  50.0000  12.0000 0000000   0.0000 102.0000 15.28598846    14
CTC1_L_00271002-03
1 87749U 22307IC  26070.40834491  .00000000  00000+0  00000-0 0  9996
2 87749  50.0000  12.0000 0000000   0.0000 192.0000 15.28598846    14
CTC1_L_00271002-04
1 87750U 23619EU  26070.40834491  .00000000  00000+0  00000-0 0  9995
2 87750  50.0000  12.0000 0000000   0.0000 282.0000 15.28598846    16
CTC1_L_00271003-01
1 87751U 23863NM  26070.40834491  .00000000  00000+0  00000-0 0  9997
2 87751  50.0000  24.0000 0000000   0.0000  24.0000 15.28598846    14
CTC1_L_00271003-02
1 87752U 26886WV  26070.40834491  .00000000  00000+0  00000-0 0  9996
2 87752  50.0000  24.0000 0000000   0.0000 114.0000 15.28598846    15
CTC1_L_00271003-03
1 87753U 26666FB  26070.40834491  .00000000  00000+0  00000-0 0  9993
2 87753  50.0000  24.0000 0000000   0.0000 204.0000 15.28598846    16
CTC1_L_00271003-04
1 87754U 24281SK  26070.40834491  .00000000  00000+0  00000-0 0  9995
2 87754  50.0000  24.0000 0000000   0.0000 294.0000 15.28598846    16
CTC1_L_00271004-01
1 87755U 22351GT  26070.40834491  .00000000  00000+0  00000-0 0  9992
2 87755  50.0000  36.0000 0000000   0.0000  36.0000 15.28598846    14
CTC1_L_00271004-02
1 87756U 25514YQ  26070.40834491  .00000000  00000+0  00000-0 0  9997
2 87756  50.0000  36.0000 0000000   0.0000 126.0000 15.28598846    15
CTC1_L_00271004-03
1 87757U 22563PJ  26070.40834491  .00000000  00000+0  00000-0 0  9999
2 87757  50.0000  36.0000 0000000   0.0000 216.0000 15.28598846    16
CTC1_L_00271004-04
1 87758U 22593UP  26070.40834491  .00000000  00000+0  00000-0 0  9993
2 87758  50.0000  36.0000 0000000   0.0000 306.0000 15.28598846    17
CTC1_L_00271005-01
1 87759U 22989PE  26070.40834491  .00000000  00000+0  00000-0 0  9993
2 87759  50.0000  48.0000 0000000   0.0000  48.0000 15.28598846    14
CTC1_L_00271005-02
1 87760U 24711WP  26070.40834491  .00000000  00000+0  00000-0 0  9990
2 87760  50.0000  48.0000 0000000   0.0000 138.0000 15.28598846    16
CTC1_L_00271005-03
1 87761U 25783EE  26070.40834491  .00000000  00000+0  00000-0 0  9991
2 87761  50.0000  48.0000 0000000   0.0000 228.0000 15.28598846    17
CTC1_L_00271005-04
1 87762U 22731PB  26070.40834491  .00000000  00000+0  00000-0 0  9992
2 87762  50.0000  48.0000 0000000   0.0000 318.0000 15.28598846    18
CTC1_L_00271006-01
1 87763U 24278M   26070.40834491  .00000000  00000+0  00000-0 0  9991
2 87763  50.0000  60.0000 0000000   0.0000  60.0000 15.28598846    17
CTC1_L_00271006-02
1 87764U 22474MZ  26070.40834491  .00000000  00000+0  00000-0 0  9998
2 87764  50.0000  60.0000 0000000   0.0000 150.0000 15.28598846    18
CTC1_L_00271006-03
1 87765U 25355GW  26070.40834491  .00000000  00000+0  00000-0 0  9990
2 87765  50.0000  60.0000 0000000   0.0000 240.0000 15.28598846    19
CTC1_L_00271006-04
1 87766U 23185XO  26070.40834491  .00000000  00000+0  00000-0 0  9990
2 87766  50.0000  60.0000 0000000   0.0000 330.0000 15.28598846    10
CTC1_L_00271007-01
1 87767U 26135OR  26070.40834491  .00000000  00000+0  00000-0 0  9999
2 87767  50.0000  72.0000 0000000   0.0000  72.0000 15.28598846    17
CTC1_L_00271007-02
1 87768U 23975KC  26070.40834491  .00000000  00000+0  00000-0 0  9999
2 87768  50.0000  72.0000 0000000   0.0000 162.0000 15.28598846    18
CTC1_L_00271007-03
1 87769U 22284VY  26070.40834491  .00000000  00000+0  00000-0 0  9992
2 87769  50.0000  72.0000 0000000   0.0000 252.0000 15.28598846    19
CTC1_L_00271007-04
1 87770U 23093JJ  26070.40834491  .00000000  00000+0  00000-0 0  9993
2 87770  50.0000  72.0000 0000000   0.0000 342.0000 15.28598846    11
CTC1_L_00271008-01
1 87771U 25685AI  26070.40834491  .00000000  00000+0  00000-0 0  9993
2 87771  50.0000  84.0000 0000000   0.0000  84.0000 15.28598846    18
CTC1_L_00271008-02
1 87772U 26714QS  26070.40834491  .00000000  00000+0  00000-0 0  9998
2 87772  50.0000  84.0000 0000000   0.0000 174.0000 15.28598846    19
CTC1_L_00271008-03
1 87773U 23470QU  26070.40834491  .00000000  00000+0  00000-0 0  9995
2 87773  50.0000  84.0000 0000000   0.0000 264.0000 15.28598846    10
CTC1_L_00271008-04
1 87774U 24725SC  26070.40834491  .00000000  00000+0  00000-0 0  9990
2 87774  50.0000  84.0000 0000000   0.0000 354.0000 15.28598846    11
CTC1_L_00271009-01
1 87775U 25943UH  26070.40834491  .00000000  00000+0  00000-0 0  9994
2 87775  50.0000  96.0000 0000000   0.0000  96.0000 15.28598846    18
CTC1_L_00271009-02
1 87776U 23124TI  26070.40834491  .00000000  00000+0  00000-0 0  9994
2 87776  50.0000  96.0000 0000000   0.0000 186.0000 15.28598846    19
CTC1_L_00271009-03
1 87777U 25824LS  26070.40834491  .00000000  00000+0  00000-0 0  9994
2 87777  50.0000  96.0000 0000000   0.0000 276.0000 15.28598846    10
CTC1_L_00271009-04
1 87778U 23642CL  26070.40834491  .00000000  00000+0  00000-0 0  9991
2 87778  50.0000  96.0000 0000000   0.0000   6.0000 15.28598846    12
CTC1_L_00271010-01
1 87779U 24570OM  26070.40834491  .00000000  00000+0  00000-0 0  9993
2 87779  50.0000 108.0000 0000000   0.0000 108.0000 15.28598846    10
CTC1_L_00271010-02
1 87780U 24326W   26070.40834491  .00000000  00000+0  00000-0 0  9994
2 87780  50.0000 108.0000 0000000   0.0000 198.0000 15.28598846    11
CTC1_L_00271010-03
1 87781U 26925VR  26070.40834491  .00000000  00000+0  00000-0 0  9992
2 87781  50.0000 108.0000 0000000   0.0000 288.0000 15.28598846    12
CTC1_L_00271010-04
1 87782U 23229QR  26070.40834491  .00000000  00000+0  00000-0 0  9997
2 87782  50.0000 108.0000 0000000   0.0000  18.0000 15.28598846    14
CTC1_L_00271011-01
1 87783U 23007QS  26070.40834491  .00000000  00000+0  00000-0 0  9992
2 87783  50.0000 120.0000 0000000   0.0000 120.0000 15.28598846    13
CTC1_L_00271011-02
1 87784U 23041JO  26070.40834491  .00000000  00000+0  00000-0 0  9991
2 87784  50.0000 120.0000 0000000   0.0000 210.0000 15.28598846    14
CTC1_L_00271011-03
1 87785U 25090YQ  26070.40834491  .00000000  00000+0  00000-0 0  9998
2 87785  50.0000 120.0000 0000000   0.0000 300.0000 15.28598846    15
CTC1_L_00271011-04
1 87786U 26519PN  26070.40834491  .00000000  00000+0  00000-0 0  9996
2 87786  50.0000 120.0000 0000000   0.0000  30.0000 15.28598846    16
CTC1_L_00271012-01
1 87787U 26418YU  26070.40834491  .00000000  00000+0  00000-0 0  9995
2 87787  50.0000 132.0000 0000000   0.0000 132.0000 15.28598846    13
CTC1_L_00271012-02
1 87788U 22932KN  26070.40834491  .00000000  00000+0  00000-0 0  9993
2 87788  50.0000 132.0000 0000000   0.0000 222.0000 15.28598846    14
CTC1_L_00271012-03
1 87789U 26765BX  26070.40834491  .00000000  00000+0  00000-0 0  9992
2 87789  50.0000 132.0000 0000000   0.0000 312.0000 15.28598846    15
CTC1_L_00271012-04
1 87790U 23122MV  26070.40834491  .00000000  00000+0  00000-0 0  9998
2 87790  50.0000 132.0000 0000000   0.0000  42.0000 15.28598846    17
CTC1_L_00271013-01
1 87791U 24761UV  26070.40834491  .00000000  00000+0  00000-0 0  9999
2 87791  50.0000 144.0000 0000000   0.0000 144.0000 15.28598846    14
CTC1_L_00271013-02
1 87792U 22132NE  26070.40834491  .00000000  00000+0  00000-0 0  9990
2 87792  50.0000 144.0000 0000000   0.0000 234.0000 15.28598846    15
CTC1_L_00271013-03
1 87793U 22410OU  26070.40834491  .00000000  00000+0  00000-0 0  9990
2 87793  50.0000 144.0000 0000000   0.0000 324.0000 15.28598846    16
CTC1_L_00271013-04
1 87794U 25766TT  26070.40834491  .00000000  00000+0  00000-0 0  9998
2 87794  50.0000 144.0000 0000000   0.0000  54.0000 15.28598846    17
CTC1_L_00271014-01
1 87795U 26671QM  26070.40834491  .00000000  00000+0  00000-0 0  9995
2 87795  50.0000 156.0000 0000000   0.0000 156.0000 15.28598846    14
CTC1_L_00271014-02
1 87796U 24359MI  26070.40834491  .00000000  00000+0  00000-0 0  9997
2 87796  50.0000 156.0000 0000000   0.0000 246.0000 15.28598846    15
CTC1_L_00271014-03
1 87797U 22712ZV  26070.40834491  .00000000  00000+0  00000-0 0  9999
2 87797  50.0000 156.0000 0000000   0.0000 336.0000 15.28598846    16
CTC1_L_00271014-04
1 87798U 26539XT  26070.40834491  .00000000  00000+0  00000-0 0  9991
2 87798  50.0000 156.0000 0000000   0.0000  66.0000 15.28598846    17
CTC1_L_00271015-01
1 87799U 25411TL  26070.40834491  .00000000  00000+0  00000-0 0  9990
2 87799  50.0000 168.0000 0000000   0.0000 168.0000 15.28598846    14
CTC1_L_00271015-02
1 87800U 25082OX  26070.40834491  .00000000  00000+0  00000-0 0  9997
2 87800  50.0000 168.0000 0000000   0.0000 258.0000 15.28598846    17
CTC1_L_00271015-03
1 87801U 26153OC  26070.40834491  .00000000  00000+0  00000-0 0  9998
2 87801  50.0000 168.0000 0000000   0.0000 348.0000 15.28598846    18
CTC1_L_00271015-04
1 87802U 22556ZX  26070.40834491  .00000000  00000+0  00000-0 0  9992
2 87802  50.0000 168.0000 0000000   0.0000  78.0000 15.28598846    19
CTC1_L_00271016-01
1 87803U 25684TO  26070.40834491  .00000000  00000+0  00000-0 0  9998
2 87803  50.0000 180.0000 0000000   0.0000 180.0000 15.28598846    18
CTC1_L_00271016-02
1 87804U 25003XY  26070.40834491  .00000000  00000+0  00000-0 0  9994
2 87804  50.0000 180.0000 0000000   0.0000 270.0000 15.28598846    19
